[{"OBJECT_NAME":"STARLINK-1569","OBJECT_ID":"2020-055N","EPOCH":"2026-03-10T00:00:02.999808","MEAN_MOTION":15.18469415,"ECCENTRICITY":0.00021467,"INCLINATION":53.1037,"RA_OF_ASC_NODE":124.869,"ARG_OF_PERICENTER":70.9863,"MEAN_ANOMALY":37.8804,"EPHEMERIS_TYPE":0,"CLASSIFICATION_TYPE":"U","NORAD_CAT_ID":46039,"ELEMENT_SET_NO":999,"REV_AT_EPOCH":579,"BSTAR":0.0056656927,"MEAN_MOTION_DOT":0.00119854,"MEAN_MOTION_DDOT":0},{"OBJECT_NAME":"KESTREL-0A","OBJECT_ID":"2025-138D","EPOCH":"2026-03-09T23:29:46.959072","MEAN_MOTION":15.21159497,"ECCENTRICITY":0.00158913,"INCLINATION":97.443,"RA_OF_ASC_NODE":74.1203,"ARG_OF_PERICENTER":109.5327,"MEAN_ANOMALY":250.7627,"EPHEMERIS_TYPE":0,"CLASSIFICATION_TYPE":"U","NORAD_CAT_ID":64624,"ELEMENT_SET_NO":999,"REV_AT_EPOCH":3885,"BSTAR":0.00055701832,"MEAN_MOTION_DOT":0.00012392,"MEAN_MOTION_DDOT":0}]
